NORAD_CAT_ID,OBJECT_NAME,OBJECT_TYPE,EPOCH,MEAN_MOTION,ECCENTRICITY,INCLINATION,RA_OF_ASC_NODE,ARG_OF_PERICENTER,MEAN_ANOMALY,BSTAR,MEAN_MOTION_DOT,MEAN_MOTION_DDOT,TLE_LINE0,TLE_LINE1,TLE_LINE2,SEMIMAJOR_AXIS,PERIOD,APOGEE,PERIGEE,DECAYED
56800.0,STARLINK-6036,PAYLOAD,2023-09-25 04:00:00,15.33474275,0.0003311,69.9992,86.2103,270.5547,209.6073,-0.03211,-0.0095225,0.0,0 STARLINK-6036,1 56800U 23078AK  23268.16667824 -.00952250  00000-0 -32110-1 0  9993,2 56800  69.9992  86.2103 0003311 270.5547 209.6073 15.33474275 18617,6843.593,93.904,467.724,463.192,0.0
56800.0,STARLINK-6036,PAYLOAD,2023-09-25 12:00:00,15.32809449,0.0003274,69.9994,85.3236,265.4032,253.9648,-0.03107,-0.00906221,0.0,0 STARLINK-6036,1 56800U 23078AK  23268.50001157 -.00906221  00000-0 -31070-1 0  9993,2 56800  69.9994  85.3236 0003274 265.4032 253.9648 15.32809449 18665,6845.572,93.945,469.678,465.196,0.0
56800.0,STARLINK-6036,PAYLOAD,2023-09-25 14:00:01,15.3266647,0.0003421,69.9994,85.102,264.6986,354.4101,-0.032613,-0.00943584,0.0,0 STARLINK-6036,1 56800U 23078AK  23268.58335648 -.00943584  00000-0 -32613-1 0  9993,2 56800  69.9994  85.1020 0003421 264.6986 354.4101 15.32666470  5917,6845.998,93.954,470.205,465.52,0.0
56800.0,STARLINK-6036,PAYLOAD,2023-09-25 22:00:00,15.31975033,0.0003412,69.9991,84.2162,271.2862,26.0087,-0.031031,-0.0088357,0.0,0 STARLINK-6036,1 56800U 23078AK  23268.91667824 -.00883570  00000-0 -31031-1 0  9995,2 56800  69.9991  84.2162 0003412 271.2862  26.0087 15.31975033  5965,6848.057,93.996,472.259,467.586,0.0
56800.0,STARLINK-6036,PAYLOAD,2023-09-26 04:00:00,15.31513899,0.0003272,69.9989,83.5525,269.353,326.0989,-0.033998,-0.00948193,0.0,0 STARLINK-6036,1 56800U 23078AK  23269.16667824 -.00948193  00000-0 -33998-1 0  9990,2 56800  69.9989  83.5525 0003272 269.3530 326.0989 15.31513899 18776,6849.432,94.025,473.538,469.056,0.0
56800.0,STARLINK-6036,PAYLOAD,2023-09-26 12:00:00,15.30859021,0.0003375,69.9991,82.6685,264.6078,7.6995,-0.033425,-0.00916182,0.0,0 STARLINK-6036,1 56800U 23078AK  23269.50001157 -.00916182  00000-0 -33425-1 0  9997,2 56800  69.9991  82.6685 0003375 264.6078   7.6995 15.30859021 18829,6851.385,94.065,475.562,470.938,0.0
56800.0,STARLINK-6036,PAYLOAD,2023-09-26 14:00:01,15.30712681,0.0003501,69.9991,82.4475,268.2563,103.2069,-0.034944,-0.00962529,0.0,0 STARLINK-6036,1 56800U 23078AK  23269.58335648 -.00962529  00000-0 -34944-1 0  9993,2 56800  69.9991  82.4475 0003501 268.2563 103.2069 15.30712681  6028,6851.822,94.074,476.086,471.288,0.0
56800.0,STARLINK-6036,PAYLOAD,2023-09-26 22:00:00,15.30019338,0.0003435,69.9987,81.5643,274.6947,132.6078,-0.033061,-0.00885481,0.0,0 STARLINK-6036,1 56800U 23078AK  23269.91667824 -.00885481  00000-0 -33061-1 0  9994,2 56800  69.9987  81.5643 0003435 274.6947 132.6078 15.30019338  6028,6853.892,94.116,478.111,473.402,0.0
56800.0,STARLINK-6036,PAYLOAD,2023-09-27 04:00:00,15.29552303,0.000337,69.9986,80.9026,270.8911,72.8104,-0.035842,-0.00953062,0.0,0 STARLINK-6036,1 56800U 23078AK  23270.16667824 -.00953062  00000-0 -35842-1 0  9993,2 56800  69.9986  80.9026 0003370 270.8911  72.8104 15.29552303 18921,6855.287,94.145,479.462,474.841,0.0
56800.0,STARLINK-6036,PAYLOAD,2023-09-27 14:00:01,15.2875531,0.0003327,69.9989,79.8009,270.4635,206.2513,-0.037159,-0.00963279,0.0,0 STARLINK-6036,1 56800U 23078AK  23270.58334491 -.00963279  00000-0 -37159-1 0  9994,2 56800  69.9989  79.8009 0003327 270.4635 206.2513 15.28755310  5928,6857.669,94.194,481.816,477.253,0.0
56800.0,STARLINK-6036,PAYLOAD,2023-09-27 20:00:01,15.28226511,0.0003395,69.9988,79.1404,275.1058,136.8532,-0.035214,-0.00891842,0.0,0 STARLINK-6036,1 56800U 23078AK  23270.83334491 -.00891842  00000-0 -35214-1 0  9998,2 56800  69.9988  79.1404 0003395 275.1058 136.8532 15.28226511 19026,6859.251,94.227,483.445,478.787,0.0
56800.0,STARLINK-6036,PAYLOAD,2023-09-28 12:00:00,15.26949115,0.0003231,69.9991,77.3815,269.5506,207.5183,-0.03808,-0.00936153,0.0,0 STARLINK-6036,1 56800U 23078AK  23271.50001157 -.00936153  00000-0 -38080-1 0  9992,2 56800  69.9991  77.3815 0003231 269.5506 207.5183 15.26949115 19129,6863.076,94.306,487.158,482.723,0.0
56800.0,STARLINK-6036,PAYLOAD,2023-09-28 16:00:30,15.26616607,0.0003367,69.999,76.9415,270.062,44.716,-0.03868,-0.00940998,0.0,0 STARLINK-6036,1 56800U 23078AK  23271.66702546 -.00940998  00000-0 -38680-1 0  9997,2 56800  69.9990  76.9415 0003367 270.0620  44.7160 15.26616607  5941,6864.072,94.326,488.248,483.626,0.0
56800.0,STARLINK-6036,PAYLOAD,2023-09-28 22:00:01,15.26103611,0.000332,69.9989,76.284,274.0419,332.2198,-0.037218,-0.00884174,0.0,0 STARLINK-6036,1 56800U 23078AK  23271.91668981 -.00884174  00000-0 -37218-1 0  9998,2 56800  69.9989  76.2840 0003320 274.0419 332.2198 15.26103611  5989,6865.61,94.358,489.755,485.196,0.0
56800.0,STARLINK-6036,PAYLOAD,2023-09-29 12:00:00,15.24992035,0.0003195,69.9995,74.7499,267.8467,301.0419,-0.040324,-0.00934472,0.0,0 STARLINK-6036,1 56800U 23078AK  23272.50001157 -.00934472  00000-0 -40324-1 0  9999,2 56800  69.9995  74.7499 0003195 267.8467 301.0419 15.24992035 19284,6868.946,94.427,493.006,488.617,0.0
56800.0,STARLINK-6036,PAYLOAD,2023-09-29 14:00:01,15.24835994,0.0003352,69.9995,74.5309,269.1359,37.0884,-0.041434,-0.00954182,0.0,0 STARLINK-6036,1 56800U 23078AK  23272.58334491 -.00954182  00000-0 -41434-1 0  9990,2 56800  69.9995  74.5309 0003352 269.1359  37.0884 15.24835994  5919,6869.415,94.436,493.583,488.977,0.0
56800.0,STARLINK-6036,PAYLOAD,2023-09-30 06:00:00,15.23480294,0.0003362,69.9994,72.7812,269.8893,93.2641,-0.039609,-0.00870795,0.0,0 STARLINK-6036,1 56800U 23078AK  23273.25001157 -.00870795  00000-0 -39609-1 0  9993,2 56800  69.9994  72.7812 0003362 269.8893  93.2641 15.23480294  6024,6873.49,94.52,497.665,493.044,0.0
56800.0,STARLINK-6036,PAYLOAD,2023-09-30 12:00:00,15.2303692,0.0003346,69.9998,72.1262,267.6231,26.0438,-0.042834,-0.00936189,0.0,0 STARLINK-6036,1 56800U 23078AK  23273.50001157 -.00936189  00000-0 -42834-1 0  9995,2 56800  69.9998  72.1262 0003346 267.6231  26.0438 15.23036920 19435,6874.824,94.548,498.989,494.388,0.0
56800.0,STARLINK-6036,PAYLOAD,2023-10-01 12:00:00,15.21081001,0.000342,70.0003,69.5106,269.5777,101.828,-0.045528,-0.00938982,0.0,0 STARLINK-6036,1 56800U 23078AK  23274.50001157 -.00938982  00000-0 -45528-1 0  9992,2 56800  70.0003  69.5106 0003420 269.5777 101.8280 15.21081001 19582,6880.716,94.67,504.934,500.227,0.0
56800.0,STARLINK-6036,PAYLOAD,2023-10-01 14:00:01,15.20922842,0.000329,70.0003,69.293,272.1168,195.4524,-0.046719,-0.00957565,0.0,0 STARLINK-6036,1 56800U 23078AK  23274.58334491 -.00957565  00000-0 -46719-1 0  9991,2 56800  70.0003  69.2930 0003290 272.1168 195.4524 15.20922842  5966,6881.193,94.679,505.322,500.794,0.0
56800.0,STARLINK-6036,PAYLOAD,2023-10-01 22:00:00,15.20235544,0.0003291,70.0001,68.423,277.1211,214.6125,-0.04452,-0.00898705,0.0,0 STARLINK-6036,1 56800U 23078AK  23274.91667824 -.00898705  00000-0 -44520-1 0  9995,2 56800  70.0001  68.4230 0003291 277.1211 214.6125 15.20235544  6028,6883.267,94.722,507.397,502.866,0.0
56800.0,STARLINK-6036,PAYLOAD,2023-10-02 20:00:01,15.18434611,0.0003307,70.0007,66.0354,276.3969,187.7267,-0.046426,-0.00890006,0.0,0 STARLINK-6036,1 56800U 23078AK  23275.83334491 -.00890006  00000-0 -46426-1 0  9991,2 56800  70.0007  66.0354 0003307 276.3969 187.7267 15.18434611 19781,6888.708,94.835,512.851,508.295,0.0
56800.0,STARLINK-6036,PAYLOAD,2023-10-02 22:00:00,15.18281453,0.0003213,70.0004,65.8187,275.2091,284.2882,-0.047441,-0.0090434,0.0,0 STARLINK-6036,1 56800U 23078AK  23275.91667824 -.00904340  00000-0 -47441-1 0  9994,2 56800  70.0004  65.8187 0003213 275.2091 284.2882 15.18281453  5964,6889.171,94.844,513.25,508.823,0.0
56800.0,STARLINK-6036,PAYLOAD,2023-10-03 14:00:01,15.17003472,0.000324,70.0008,64.0869,269.0606,331.6932,-0.051861,-0.00949272,0.0,0 STARLINK-6036,1 56800U 23078AK  23276.58334491 -.00949272  00000-0 -51861-1 0  9993,2 56800  70.0008  64.0869 0003240 269.0606 331.6932 15.17003472 19903,6893.04,94.924,517.138,512.672,0.0
56800.0,STARLINK-6036,PAYLOAD,2023-10-03 22:00:00,15.1632971,0.0003256,70.0005,63.2221,273.4914,346.7288,-0.050698,-0.00913024,0.0,0 STARLINK-6036,1 56800U 23078AK  23276.91667824 -.00913024  00000-0 -50698-1 0  9992,2 56800  70.0005  63.2221 0003256 273.4914 346.7288 15.16329710  6071,6895.082,94.966,519.192,514.702,0.0
56800.0,STARLINK-6036,PAYLOAD,2023-10-04 12:00:00,15.15212145,0.0003188,70.0009,61.7111,268.1501,294.2292,-0.05438,-0.00945972,0.0,0 STARLINK-6036,1 56800U 23078AK  23277.50001157 -.00945972  00000-0 -54380-1 0  9998,2 56800  70.0009  61.7111 0003188 268.1501 294.2292 15.15212145 20040,6898.472,95.036,522.536,518.137,0.0
56800.0,STARLINK-6036,PAYLOAD,2023-10-04 14:00:01,15.15045654,0.0003325,70.0008,61.4956,268.8332,27.9512,-0.054766,-0.00948051,0.0,0 STARLINK-6036,1 56800U 23078AK  23277.58334491 -.00948051  00000-0 -54766-1 0  9995,2 56800  70.0008  61.4956 0003325 268.8332  27.9512 15.15045654  6022,6898.977,95.047,523.136,518.548,0.0
56800.0,STARLINK-6036,PAYLOAD,2023-10-04 22:00:01,15.14375648,0.000336,70.0004,60.6334,273.4403,40.5241,-0.053915,-0.00918091,0.0,0 STARLINK-6036,1 56800U 23078AK  23277.91668981 -.00918091  00000-0 -53915-1 0  9992,2 56800  70.0004  60.6334 0003360 273.4403  40.5241 15.14375648  5835,6901.012,95.089,525.195,520.558,0.0
56800.0,STARLINK-6036,PAYLOAD,2023-10-05 14:00:01,15.13087072,0.0003343,70.0008,58.912,269.4422,76.332,-0.05777,-0.00946362,0.0,0 STARLINK-6036,1 56800U 23078AK  23278.58334491 -.00946362  00000-0 -57770-1 0  9997,2 56800  70.0008  58.9120 0003343 269.4422  76.3320 15.13087072  5946,6904.929,95.17,529.102,524.486,0.0
56800.0,STARLINK-6036,PAYLOAD,2023-10-05 20:00:01,15.12564482,0.0003268,70.0006,58.2673,272.9173,354.0153,-0.054786,-0.0088874,0.0,0 STARLINK-6036,1 56800U 23078AK  23278.83334491 -.00888740  00000-0 -54786-1 0  9994,2 56800  70.0006  58.2673 0003268 272.9173 354.0153 15.12564482 20242,6906.52,95.203,530.642,526.127,0.0
